[{"OBJECT_NAME":"STARLINK-6323","OBJECT_ID":"2023-065X","EPOCH":"2026-03-09T11:06:41.363136","MEAN_MOTION":15.02589583,"ECCENTRICITY":0.00018118,"INCLINATION":43.0041,"RA_OF_ASC_NODE":211.3152,"ARG_OF_PERICENTER":271.8883,"MEAN_ANOMALY":88.1752,"EPHEMERIS_TYPE":0,"CLASSIFICATION_TYPE":"U","NORAD_CAT_ID":56524,"ELEMENT_SET_NO":999,"REV_AT_EPOCH":15659,"BSTAR":-0.0010272179,"MEAN_MOTION_DOT":-0.00014072,"MEAN_MOTION_DDOT":0},{"OBJECT_NAME":"SS 3","OBJECT_ID":"1977-112F","EPOCH":"2026-03-09T11:00:16.769952","MEAN_MOTION":14.02902253,"ECCENTRICITY":0.04940828,"INCLINATION":63.3287,"RA_OF_ASC_NODE":97.995,"ARG_OF_PERICENTER":162.0806,"MEAN_ANOMALY":199.8388,"EPHEMERIS_TYPE":0,"CLASSIFICATION_TYPE":"U","NORAD_CAT_ID":10594,"ELEMENT_SET_NO":999,"REV_AT_EPOCH":35330,"BSTAR":0.00018531048,"MEAN_MOTION_DOT":7.13e-6,"MEAN_MOTION_DDOT":0}]
